{"type": "FeatureCollection", "features": [ {"type": "Feature", "properties": {"norad_id": 31955, "name": "FENGYUN 1C DEB", "group": "fengyun-1c-debris", "lat": -30.91796652497522, "lon": -140.30799100897113, "alt_km": 703.1050860028872, "timestamp": "2025-12-04T07:39:36.419729+00:00", "meta": {"OBJECT_NAME": "FENGYUN 1C DEB", "OBJECT_ID": "1999-025CNG", "EPOCH": "2025-12-03T22:02:06.152928", "MEAN_MOTION": 14.63635668, "ECCENTRICITY": 0.00432451, "INCLINATION": 99.2808, "RA_OF_ASC_NODE": 213.6207, "ARG_OF_PERICENTER": 208.7525, "MEAN_ANOMALY": 167.623, "EPHEMERIS_TYPE": 0, "CLASSIFICATION_TYPE": "U", "NORAD_CAT_ID": 31955, "ELEMENT_SET_NO": 999, "REV_AT_EPOCH": 96428, "BSTAR": 0.0035570179, "MEAN_MOTION_DOT": 0.00018731, "MEAN_MOTION_DDOT": 0}, "tle": {"line1": "1 31955U 99025CNG 25337.91812677  .00018731  00000+0  35570-2 0  9990", "line2": "2 31955  99.2808 213.6207 0043245 208.7525 167.6230 14.63635668964281"}}, "geometry": {"type": "Point", "coordinates": [-140.30799100897113, -30.91796652497522]}}, {"type": "Feature", "properties": {"norad_id": 31959, "name": "FENGYUN 1C DEB", "group": "fengyun-1c-debris", "lat": 3.7554122135678276, "lon": 29.84934689270829, "alt_km": 720.8259812098122, "timestamp": "2025-12-04T07:39:36.419738+00:00", "meta": {"OBJECT_NAME": "FENGYUN 1C DEB", "OBJECT_ID": "1999-025CNL", "EPOCH": "2025-12-03T09:15:58.403232", "MEAN_MOTION": 14.4647152, "ECCENTRICITY": 0.00265609, "INCLINATION": 98.5103, "RA_OF_ASC_NODE": 208.3494, "ARG_OF_PERICENTER": 186.1807, "MEAN_ANOMALY": 173.9061, "EPHEMERIS_TYPE": 0, "CLASSIFICATION_TYPE": "U", "NORAD_CAT_ID": 31959, "ELEMENT_SET_NO": 999, "REV_AT_EPOCH": 64218, "BSTAR": 0.0034525583, "MEAN_MOTION_DOT": 0.0001245, "MEAN_MOTION_DDOT": 0}, "tle": {"line1": "1 31959U 99025CNL 25337.38609263  .00012450  00000+0  34526-2 0  9992", "line2": "2 31959  98.5103 208.3494 0026560 186.1807 173.9061 14.46471520642187"}}, "geometry": {"type": "Point", "coordinates": [29.84934689270829, 3.7554122135678276]}}, {"type": "Feature", "properties": {"norad_id": 31964, "name": "FENGYUN 1C DEB", "group": "fengyun-1c-debris", "lat": -37.51827493635376, "lon": 108.31323911817978, "alt_km": 707.8874572363702, "timestamp": "2025-12-04T07:39:36.419748+00:00", "meta": {"OBJECT_NAME": "FENGYUN 1C DEB", "OBJECT_ID": "1999-025CNR", "EPOCH": "2025-12-03T07:07:49.497024", "MEAN_MOTION": 14.5811134, "ECCENTRICITY": 0.0028951, "INCLINATION": 98.6996, "RA_OF_ASC_NODE": 100.4929, "ARG_OF_PERICENTER": 61.9427, "MEAN_ANOMALY": 298.4693, "EPHEMERIS_TYPE": 0, "CLASSIFICATION_TYPE": "U", "NORAD_CAT_ID": 31964, "ELEMENT_SET_NO": 999, "REV_AT_EPOCH": 67372, "BSTAR": 0.0035887, "MEAN_MOTION_DOT": 0.00016609, "MEAN_MOTION_DDOT": 0}, "tle": {"line1": "1 31964U 99025CNR 25337.29710066  .00016609  00000+0  35887-2 0  9993", "line2": "2 31964  98.6996 100.4929 0028951  61.9427 298.4693 14.58111340673725"}}, "geometry": {"type": "Point", "coordinates": [108.31323911817978, -37.51827493635376]}}, {"type": "Feature", "properties": {"norad_id": 31966, "name": "FENGYUN 1C DEB", "group": "fengyun-1c-debris", "lat": 25.25865274279248, "lon": 125.7706620484229, "alt_km": 662.830755407911, "timestamp": "2025-12-04T07:39:36.419757+00:00", "meta": {"OBJECT_NAME": "FENGYUN 1C DEB", "OBJECT_ID": "1999-025CNT", "EPOCH": "2025-11-30T16:48:16.407360", "MEAN_MOTION": 14.67276543, "ECCENTRICITY": 0.00863938, "INCLINATION": 99.0163, "RA_OF_ASC_NODE": 126.0883, "ARG_OF_PERICENTER": 312.0125, "MEAN_ANOMALY": 47.3743, "EPHEMERIS_TYPE": 0, "CLASSIFICATION_TYPE": "U", "NORAD_CAT_ID": 31966, "ELEMENT_SET_NO": 999, "REV_AT_EPOCH": 65566, "BSTAR": 0.0011078085, "MEAN_MOTION_DOT": 6.547e-05, "MEAN_MOTION_DDOT": 0}, "tle": {"line1": "1 31966U 99025CNT 25334.70018990  .00006547  00000+0  11078-2 0  9991", "line2": "2 31966  99.0163 126.0883 0086393 312.0125  47.3743 14.67276543655667"}}, "geometry": {"type": "Point", "coordinates": [125.7706620484229, 25.25865274279248]}}, {"type": "Feature", "properties": {"norad_id": 31972, "name": "FENGYUN 1C DEB", "group": "fengyun-1c-debris", "lat": 76.69293813474115, "lon": -23.52753770589807, "alt_km": 809.904977601921, "timestamp": "2025-12-04T07:39:36.419766+00:00", "meta": {"OBJECT_NAME": "FENGYUN 1C DEB", "OBJECT_ID": "1999-025CNZ", "EPOCH": "2025-12-03T02:24:22.277376", "MEAN_MOTION": 14.07502652, "ECCENTRICITY": 0.00773129, "INCLINATION": 99.2135, "RA_OF_ASC_NODE": 18.5628, "ARG_OF_PERICENTER": 58.4983, "MEAN_ANOMALY": 328.6436, "EPHEMERIS_TYPE": 0, "CLASSIFICATION_TYPE": "U", "NORAD_CAT_ID": 31972, "ELEMENT_SET_NO": 999, "REV_AT_EPOCH": 94825, "BSTAR": 0.00019871825, "MEAN_MOTION_DOT": 2.98e-06, "MEAN_MOTION_DDOT": 0}, "tle": {"line1": "1 31972U 99025CNZ 25337.10025784  .00000298  00000+0  19872-3 0  9992", "line2": "2 31972  99.2135  18.5628 0077312  58.4983 328.6436 14.07502652948252"}}, "geometry": {"type": "Point", "coordinates": [-23.52753770589807, 76.69293813474115]}}, {"type": "Feature", "properties": {"norad_id": 31974, "name": "FENGYUN 1C DEB", "group": "fengyun-1c-debris", "lat": -64.53438488588618, "lon": 151.739115135231, "alt_km": 793.7638975948885, "timestamp": "2025-12-04T07:39:36.419775+00:00", "meta": {"OBJECT_NAME": "FENGYUN 1C DEB", "OBJECT_ID": "1999-025CPB", "EPOCH": "2025-12-03T12:01:37.238880", "MEAN_MOTION": 14.29323737, "ECCENTRICITY": 0.00717443, "INCLINATION": 98.3791, "RA_OF_ASC_NODE": 348.9807, "ARG_OF_PERICENTER": 330.394, "MEAN_ANOMALY": 29.319, "EPHEMERIS_TYPE": 0, "CLASSIFICATION_TYPE": "U", "NORAD_CAT_ID": 31974, "ELEMENT_SET_NO": 999, "REV_AT_EPOCH": 69290, "BSTAR": 0.0032936123, "MEAN_MOTION_DOT": 8.588e-05, "MEAN_MOTION_DDOT": 0}, "tle": {"line1": "1 31974U 99025CPB 25337.50112545  .00008588  00000+0  32936-2 0  9995", "line2": "2 31974  98.3791 348.9807 0071744 330.3940  29.3190 14.29323737692908"}}, "geometry": {"type": "Point", "coordinates": [151.739115135231, -64.53438488588618]}}, {"type": "Feature", "properties": {"norad_id": 31978, "name": "FENGYUN 1C DEB", "group": "fengyun-1c-debris", "lat": 43.33136763036663, "lon": -37.497886251458226, "alt_km": 930.3308853162644, "timestamp": "2025-12-04T07:39:36.419784+00:00", "meta": {"OBJECT_NAME": "FENGYUN 1C DEB", "OBJECT_ID": "1999-025CPF", "EPOCH": "2025-11-24T09:11:44.769120", "MEAN_MOTION": 13.63055999, "ECCENTRICITY": 0.02632898, "INCLINATION": 98.3792, "RA_OF_ASC_NODE": 125.945, "ARG_OF_PERICENTER": 98.6092, "MEAN_ANOMALY": 264.4976, "EPHEMERIS_TYPE": 0, "CLASSIFICATION_TYPE": "U", "NORAD_CAT_ID": 31978, "ELEMENT_SET_NO": 999, "REV_AT_EPOCH": 91340, "BSTAR": 0.0013570438, "MEAN_MOTION_DOT": 1.31e-05, "MEAN_MOTION_DDOT": 0}, "tle": {"line1": "1 31978U 99025CPF 25328.38315705  .00001310  00000+0  13570-2 0  9997", "line2": "2 31978  98.3792 125.9450 0263289  98.6092 264.4976 13.63055999913403"}}, "geometry": {"type": "Point", "coordinates": [-37.497886251458226, 43.33136763036663]}}, {"type": "Feature", "properties": {"norad_id": 31979, "name": "FENGYUN 1C DEB", "group": "fengyun-1c-debris", "lat": -38.54118012835841, "lon": -116.42919181242108, "alt_km": 982.7165981815524, "timestamp": "2025-12-04T07:39:36.419794+00:00", "meta": {"OBJECT_NAME": "FENGYUN 1C DEB", "OBJECT_ID": "1999-025CPG", "EPOCH": "2025-12-02T12:28:35.492736", "MEAN_MOTION": 13.69187291, "ECCENTRICITY": 0.02646506, "INCLINATION": 99.3777, "RA_OF_ASC_NODE": 69.3826, "ARG_OF_PERICENTER": 307.5764, "MEAN_ANOMALY": 50.1611, "EPHEMERIS_TYPE": 0, "CLASSIFICATION_TYPE": "U", "NORAD_CAT_ID": 31979, "ELEMENT_SET_NO": 999, "REV_AT_EPOCH": 57772, "BSTAR": 0.003510695, "MEAN_MOTION_DOT": 3.844e-05, "MEAN_MOTION_DDOT": 0}, "tle": {"line1": "1 31979U 99025CPG 25336.51985524  .00003844  00000+0  35107-2 0  9998", "line2": "2 31979  99.3777  69.3826 0264650 307.5764  50.1611 13.69187291577721"}}, "geometry": {"type": "Point", "coordinates": [-116.42919181242108, -38.54118012835841]}}, {"type": "Feature", "properties": {"norad_id": 31980, "name": "FENGYUN 1C DEB", "group": "fengyun-1c-debris", "lat": -51.67222621247321, "lon": 75.50027027727262, "alt_km": 1465.521123272587, "timestamp": "2025-12-04T07:39:36.419803+00:00", "meta": {"OBJECT_NAME": "FENGYUN 1C DEB", "OBJECT_ID": "1999-025CPH", "EPOCH": "2025-11-07T01:33:48.122784", "MEAN_MOTION": 13.32082371, "ECCENTRICITY": 0.04288031, "INCLINATION": 97.6138, "RA_OF_ASC_NODE": 45.4675, "ARG_OF_PERICENTER": 204.355, "MEAN_ANOMALY": 153.6774, "EPHEMERIS_TYPE": 0, "CLASSIFICATION_TYPE": "U", "NORAD_CAT_ID": 31980, "ELEMENT_SET_NO": 999, "REV_AT_EPOCH": 89195, "BSTAR": 0.0011351544, "MEAN_MOTION_DOT": 8.87e-06, "MEAN_MOTION_DDOT": 0}, "tle": {"line1": "1 31980U 99025CPH 25311.06514031  .00000887  00000+0  11352-2 0  9994", "line2": "2 31980  97.6138  45.4675 0428803 204.3550 153.6774 13.32082371891957"}}, "geometry": {"type": "Point", "coordinates": [75.50027027727262, -51.67222621247321]}}, {"type": "Feature", "properties": {"norad_id": 31984, "name": "FENGYUN 1C DEB", "group": "fengyun-1c-debris", "lat": 68.64885834527972, "lon": -39.762366464293265, "alt_km": 853.7105954476174, "timestamp": "2025-12-04T07:39:36.419812+00:00", "meta": {"OBJECT_NAME": "FENGYUN 1C DEB", "OBJECT_ID": "1999-025CPM", "EPOCH": "2025-12-02T19:53:15.322848", "MEAN_MOTION": 14.2293256, "ECCENTRICITY": 0.00625309, "INCLINATION": 98.5577, "RA_OF_ASC_NODE": 341.445, "ARG_OF_PERICENTER": 256.5759, "MEAN_ANOMALY": 102.8445, "EPHEMERIS_TYPE": 0, "CLASSIFICATION_TYPE": "U", "NORAD_CAT_ID": 31984, "ELEMENT_SET_NO": 999, "REV_AT_EPOCH": 94232, "BSTAR": 0.00049073387, "MEAN_MOTION_DOT": 1.083e-05, "MEAN_MOTION_DDOT": 0}, "tle": {"line1": "1 31984U 99025CPM 25336.82864957  .00001083  00000+0  49073-3 0  9995", "line2": "2 31984  98.5577 341.4450 0062530 256.5759 102.8445 14.22932560942322"}}, "geometry": {"type": "Point", "coordinates": [-39.762366464293265, 68.64885834527972]}}]}